APRIZESAT 2             
1 28366U 04025A   26156.45611716  .00000155  00000+0  61640-4 0  9998
2 28366  98.1006 323.1013 0104312 285.6907  73.2793 14.38031312149957
SAUDICOMSAT 1           
1 28369U 04025D   26157.84178847  .00000422  00000+0  10771-3 0  9993
2 28369  98.5772 167.6941 0033199  56.5265 303.9097 14.55465353162625
SAUDICOMSAT 2           
1 28370U 04025E   26157.77413146  .00000308  00000+0  90949-4 0  9990
2 28370  98.6642 169.7254 0054183 291.7008  67.8421 14.49975252158593
APRIZESAT 1             
1 28372U 04025G   26157.81861000  .00000215  00000+0  65039-4 0  9992
2 28372  98.6304 168.2618 0044471 185.1462 174.9281 14.51771899160408
NANOSAT-1               
1 28493U 04049B   26157.69085729  .00001203  00000+0  16577-3 0  9994
2 28493  98.2264 294.0962 0003419 345.3181  14.7930 14.80139180153898
SAUDICOMSAT 7           
1 31119U 07012C   26157.67070396  .00000562  00000+0  10971-3 0  9997
2 31119  98.3773 131.5874 0054657 228.5814 131.0686 14.66100184 20895
SAUDICOMSAT 6           
1 31121U 07012E   26157.14411204  .00000828  00000+0  16744-3 0  9998
2 31121  98.4092 124.4556 0071858   2.3006 357.8511 14.62544561 18578
SAUDICOMSAT 5           
1 31124U 07012H   26157.65879603  .00000646  00000+0  11970-3 0  9992
2 31124  98.3484 132.3249 0047855 157.2563 203.0776 14.68144162 22052
SAUDICOMSAT 3           
1 31125U 07012J   26157.63764485  .00000974  00000+0  16662-3 0  9999
2 31125  98.3138 132.8527 0040509  85.5124 275.0708 14.70688470 23275
SAUDICOMSAT 4           
1 31127U 07012L   26157.42797052  .00000642  00000+0  12783-3 0  9996
2 31127  98.3978 129.7793 0062165 292.5587  66.9044 14.64501418 19717
APRIZESAT 4             
1 35684U 09041D   26157.19822005  .00000839  00000+0  10654-3 0  9996
2 35684  98.1412 232.2996 0043196 359.0984   1.0144 14.83864919909738
APRIZESAT 3             
1 35686U 09041F   26157.66635066  .00001445  00000+0  12900-3 0  9999
2 35686  98.2057 310.3875 0062849 101.5582 259.2702 14.96212138914805
S-NET D                 
1 43186U 18014G   26157.64153763  .00005694  00000+0  29481-3 0  9992
2 43186  97.5366  62.4982 0009756  62.0124 298.2095 15.16571751457160
S-NET B                 
1 43187U 18014H   26157.45484124  .00006078  00000+0  31469-3 0  9996
2 43187  97.5374  62.2988 0010381  58.1599 302.0643 15.16540940457138
S-NET A                 
1 43188U 18014J   26157.64047150  .00005665  00000+0  29325-3 0  9991
2 43188  97.5379  62.6903 0010304  58.0944 302.1289 15.16579165457164
S-NET C                 
1 43189U 18014K   26156.99678978  .00006551  00000+0  33891-3 0  9995
2 43189  97.5399  62.1237 0011496  53.0599 307.1685 15.16527728455617
SALSAT                  
1 46495U 20068K   26157.74488442  .00010129  00000+0  35498-3 0  9990
2 46495  97.8851 160.1753 0009050 349.8452  10.2602 15.29647917313762
OOV-CUBE (TUBSAT-30)    
1 60240U 24128F   26157.67524211  .00003003  00000+0  23435-3 0  9993
2 60240  61.9952 262.2263 0045953 131.4155 229.0900 15.02727815104538
LPNTSAT-001 (IOD-1)     
1 68408U 26065A   26157.59931274  .00003594  00000+0  17693-3 0  9995
2 68408  97.4028  38.3326 0017686  45.9521 314.3166 15.18482011 10654
